[{"OBJECT_NAME":"ONEWEB-0615","OBJECT_ID":"2022-166AL","EPOCH":"2025-08-26T20:50:35.303424","MEAN_MOTION":13.21829064,"ECCENTRICITY":0.00019419,"INCLINATION":87.924,"RA_OF_ASC_NODE":302.7207,"ARG_OF_PERICENTER":96.021,"MEAN_ANOMALY":264.1146,"EPHEMERIS_TYPE":0,"CLASSIFICATION_TYPE":"U","NORAD_CAT_ID":54676,"ELEMENT_SET_NO":999,"REV_AT_EPOCH":13256,"BSTAR":-6.347608e-5,"MEAN_MOTION_DOT":-1.3e-7,"MEAN_MOTION_DDOT":0},{"OBJECT_NAME":"ONEWEB-0655","OBJECT_ID":"2022-166AM","EPOCH":"2025-08-26T22:01:03.810144","MEAN_MOTION":13.21825845,"ECCENTRICITY":0.00021423,"INCLINATION":87.9242,"RA_OF_ASC_NODE":302.7159,"ARG_OF_PERICENTER":88.8107,"MEAN_ANOMALY":271.3272,"EPHEMERIS_TYPE":0,"CLASSIFICATION_TYPE":"U","NORAD_CAT_ID":54677,"ELEMENT_SET_NO":999,"REV_AT_EPOCH":13256,"BSTAR":0.00017313902,"MEAN_MOTION_DOT":8.5e-7,"MEAN_MOTION_DDOT":0},{"OBJECT_NAME":"ONEWEB-0659","OBJECT_ID":"2022-166AN","EPOCH":"2025-08-26T22:26:00.009312","MEAN_MOTION":13.21827716,"ECCENTRICITY":0.00018864,"INCLINATION":87.9239,"RA_OF_ASC_NODE":302.7131,"ARG_OF_PERICENTER":100.3011,"MEAN_ANOMALY":259.8335,"EPHEMERIS_TYPE":0,"CLASSIFICATION_TYPE":"U","NORAD_CAT_ID":54678,"ELEMENT_SET_NO":999,"REV_AT_EPOCH":13265,"BSTAR":-5.8033414e-5,"MEAN_MOTION_DOT":-1.1e-7,"MEAN_MOTION_DDOT":0},{"OBJECT_NAME":"ONEWEB-0685","OBJECT_ID":"2022-166AP","EPOCH":"2025-08-26T15:12:17.798976","MEAN_MOTION":13.21824269,"ECCENTRICITY":0.00022581,"INCLINATION":87.9243,"RA_OF_ASC_NODE":302.7687,"ARG_OF_PERICENTER":97.2133,"MEAN_ANOMALY":262.9258,"EPHEMERIS_TYPE":0,"CLASSIFICATION_TYPE":"U","NORAD_CAT_ID":54679,"ELEMENT_SET_NO":999,"REV_AT_EPOCH":13250,"BSTAR":-0.0001690755,"MEAN_MOTION_DOT":-5.7e-7,"MEAN_MOTION_DDOT":0},{"OBJECT_NAME":"ONEWEB-0712","OBJECT_ID":"2022-166AQ","EPOCH":"2025-08-26T21:01:08.518656","MEAN_MOTION":13.16594877,"ECCENTRICITY":0.00021058,"INCLINATION":87.9014,"RA_OF_ASC_NODE":287.428,"ARG_OF_PERICENTER":78.8622,"MEAN_ANOMALY":281.2746,"EPHEMERIS_TYPE":0,"CLASSIFICATION_TYPE":"U","NORAD_CAT_ID":54680,"ELEMENT_SET_NO":999,"REV_AT_EPOCH":13333,"BSTAR":-2.2396316e-5,"MEAN_MOTION_DOT":4.0e-8,"MEAN_MOTION_DDOT":0},{"OBJECT_NAME":"ONEWEB-0714","OBJECT_ID":"2022-166AR","EPOCH":"2025-08-26T17:10:19.788384","MEAN_MOTION":13.21828195,"ECCENTRICITY":0.0002177,"INCLINATION":87.9243,"RA_OF_ASC_NODE":302.7459,"ARG_OF_PERICENTER":93.993,"MEAN_ANOMALY":266.1453,"EPHEMERIS_TYPE":0,"CLASSIFICATION_TYPE":"U","NORAD_CAT_ID":54681,"ELEMENT_SET_NO":999,"REV_AT_EPOCH":13263,"BSTAR":-0.00025828673,"MEAN_MOTION_DOT":-9.4e-7,"MEAN_MOTION_DDOT":0},{"OBJECT_NAME":"ONEWEB-0532","OBJECT_ID":"2023-004A","EPOCH":"2025-08-26T22:22:54.210432","MEAN_MOTION":13.17646014,"ECCENTRICITY":0.00019321,"INCLINATION":87.9032,"RA_OF_ASC_NODE":64.4018,"ARG_OF_PERICENTER":102.2033,"MEAN_ANOMALY":257.9315,"EPHEMERIS_TYPE":0,"CLASSIFICATION_TYPE":"U","NORAD_CAT_ID":55140,"ELEMENT_SET_NO":999,"REV_AT_EPOCH":12883,"BSTAR":-5.6551614e-5,"MEAN_MOTION_DOT":-9.0e-8,"MEAN_MOTION_DDOT":0},{"OBJECT_NAME":"ONEWEB-0533","OBJECT_ID":"2023-004B","EPOCH":"2025-08-26T22:52:41.927520","MEAN_MOTION":13.12441477,"ECCENTRICITY":0.00019399,"INCLINATION":87.8875,"RA_OF_ASC_NODE":49.1325,"ARG_OF_PERICENTER":88.3799,"MEAN_ANOMALY":271.7551,"EPHEMERIS_TYPE":0,"CLASSIFICATION_TYPE":"U","NORAD_CAT_ID":55141,"ELEMENT_SET_NO":999,"REV_AT_EPOCH":12946,"BSTAR":-0.0007331593,"MEAN_MOTION_DOT":-2.51e-6,"MEAN_MOTION_DDOT":0},{"OBJECT_NAME":"ONEWEB-0541","OBJECT_ID":"2023-004C","EPOCH":"2025-08-26T19:54:16.453440","MEAN_MOTION":13.11417439,"ECCENTRICITY":0.00015992,"INCLINATION":87.8785,"RA_OF_ASC_NODE":79.7035,"ARG_OF_PERICENTER":89.5445,"MEAN_ANOMALY":270.5866,"EPHEMERIS_TYPE":0,"CLASSIFICATION_TYPE":"U","NORAD_CAT_ID":55142,"ELEMENT_SET_NO":999,"REV_AT_EPOCH":12736,"BSTAR":-0.00095496454,"MEAN_MOTION_DOT":-3.26e-6,"MEAN_MOTION_DDOT":0},{"OBJECT_NAME":"ONEWEB-0543","OBJECT_ID":"2023-004D","EPOCH":"2025-08-26T21:57:14.057856","MEAN_MOTION":13.18685955,"ECCENTRICITY":0.00018224,"INCLINATION":87.9144,"RA_OF_ASC_NODE":33.9523,"ARG_OF_PERICENTER":85.0384,"MEAN_ANOMALY":275.0956,"EPHEMERIS_TYPE":0,"CLASSIFICATION_TYPE":"U","NORAD_CAT_ID":55143,"ELEMENT_SET_NO":999,"REV_AT_EPOCH":13091,"BSTAR":4.4093761e-5,"MEAN_MOTION_DOT":3.0e-7,"MEAN_MOTION_DDOT":0},{"OBJECT_NAME":"ONEWEB-0544","OBJECT_ID":"2023-004E","EPOCH":"2025-08-26T21:47:43.570752","MEAN_MOTION":13.18686183,"ECCENTRICITY":0.00015939,"INCLINATION":87.9143,"RA_OF_ASC_NODE":33.9438,"ARG_OF_PERICENTER":89.4719,"MEAN_ANOMALY":270.6596,"EPHEMERIS_TYPE":0,"CLASSIFICATION_TYPE":"U","NORAD_CAT_ID":55144,"ELEMENT_SET_NO":999,"REV_AT_EPOCH":13091,"BSTAR":4.3678286e-5,"MEAN_MOTION_DOT":3.0e-7,"MEAN_MOTION_DDOT":0},{"OBJECT_NAME":"ONEWEB-0560","OBJECT_ID":"2023-004F","EPOCH":"2025-08-26T21:38:14.025408","MEAN_MOTION":13.18686709,"ECCENTRICITY":0.00015133,"INCLINATION":87.9152,"RA_OF_ASC_NODE":33.9224,"ARG_OF_PERICENTER":89.3883,"MEAN_ANOMALY":270.7423,"EPHEMERIS_TYPE":0,"CLASSIFICATION_TYPE":"U","NORAD_CAT_ID":55145,"ELEMENT_SET_NO":999,"REV_AT_EPOCH":13092,"BSTAR":7.1216128e-5,"MEAN_MOTION_DOT":4.1e-7,"MEAN_MOTION_DDOT":0},{"OBJECT_NAME":"ONEWEB-0565","OBJECT_ID":"2023-004G","EPOCH":"2025-08-26T21:28:42.448800","MEAN_MOTION":13.18684992,"ECCENTRICITY":0.00013937,"INCLINATION":87.9142,"RA_OF_ASC_NODE":33.9791,"ARG_OF_PERICENTER":109.6718,"MEAN_ANOMALY":250.4565,"EPHEMERIS_TYPE":0,"CLASSIFICATION_TYPE":"U","NORAD_CAT_ID":55146,"ELEMENT_SET_NO":999,"REV_AT_EPOCH":13091,"BSTAR":-0.00024824421,"MEAN_MOTION_DOT":-8.5e-7,"MEAN_MOTION_DDOT":0},{"OBJECT_NAME":"ONEWEB-0567","OBJECT_ID":"2023-004H","EPOCH":"2025-08-26T21:19:12.623520","MEAN_MOTION":13.1868477,"ECCENTRICITY":0.00013778,"INCLINATION":87.9149,"RA_OF_ASC_NODE":33.9395,"ARG_OF_PERICENTER":99.2614,"MEAN_ANOMALY":260.8674,"EPHEMERIS_TYPE":0,"CLASSIFICATION_TYPE":"U","NORAD_CAT_ID":55147,"ELEMENT_SET_NO":999,"REV_AT_EPOCH":13091,"BSTAR":-0.00021468143,"MEAN_MOTION_DOT":-7.2e-7,"MEAN_MOTION_DDOT":0},{"OBJECT_NAME":"ONEWEB-0569","OBJECT_ID":"2023-004J","EPOCH":"2025-08-26T21:16:27.800832","MEAN_MOTION":13.1346966,"ECCENTRICITY":7.907e-5,"INCLINATION":87.901,"RA_OF_ASC_NODE":18.6645,"ARG_OF_PERICENTER":87.4555,"MEAN_ANOMALY":272.6664,"EPHEMERIS_TYPE":0,"CLASSIFICATION_TYPE":"U","NORAD_CAT_ID":55148,"ELEMENT_SET_NO":999,"REV_AT_EPOCH":13154,"BSTAR":-0.00082326731,"MEAN_MOTION_DOT":-2.88e-6,"MEAN_MOTION_DDOT":0},{"OBJECT_NAME":"ONEWEB-0570","OBJECT_ID":"2023-004K","EPOCH":"2025-08-26T21:04:58.797984","MEAN_MOTION":13.18685735,"ECCENTRICITY":0.00018879,"INCLINATION":87.9145,"RA_OF_ASC_NODE":33.9427,"ARG_OF_PERICENTER":112.5383,"MEAN_ANOMALY":247.5949,"EPHEMERIS_TYPE":0,"CLASSIFICATION_TYPE":"U","NORAD_CAT_ID":55149,"ELEMENT_SET_NO":999,"REV_AT_EPOCH":13090,"BSTAR":-5.8609342e-5,"MEAN_MOTION_DOT":-1.0e-7,"MEAN_MOTION_DDOT":0}]
