ONEWEB-0615             
1 54676U 22166AL  25238.86846416 -.00000013  00000+0 -63476-4 0  9993
2 54676  87.9240 302.7207 0001941  96.0210 264.1146 13.21829064132561
ONEWEB-0655             
1 54677U 22166AM  25238.91740521  .00000085  00000+0  17314-3 0  9996
2 54677  87.9242 302.7159 0002142  88.8107 271.3272 13.21825845132561
ONEWEB-0659             
1 54678U 22166AN  25238.93472233 -.00000011  00000+0 -58033-4 0  9996
2 54678  87.9239 302.7131 0001886 100.3011 259.8335 13.21827716132656
ONEWEB-0685             
1 54679U 22166AP  25238.63353934 -.00000057  00000+0 -16908-3 0  9994
2 54679  87.9243 302.7687 0002258  97.2133 262.9258 13.21824269132504
ONEWEB-0712             
1 54680U 22166AQ  25238.87579304  .00000004  00000+0 -22396-4 0  9993
2 54680  87.9014 287.4280 0002105  78.8622 281.2746 13.16594877133330
ONEWEB-0714             
1 54681U 22166AR  25238.71550681 -.00000094  00000+0 -25829-3 0  9997
2 54681  87.9243 302.7459 0002177  93.9930 266.1453 13.21828195132631
ONEWEB-0532             
1 55140U 23004A   25238.93257188 -.00000009  00000+0 -56552-4 0  9994
2 55140  87.9032  64.4018 0001932 102.2033 257.9315 13.17646014128832
ONEWEB-0533             
1 55141U 23004B   25238.95326305 -.00000251  00000+0 -73316-3 0  9990
2 55141  87.8875  49.1325 0001939  88.3799 271.7551 13.12441477129465
ONEWEB-0541             
1 55142U 23004C   25238.82935710 -.00000326  00000+0 -95496-3 0  9999
2 55142  87.8785  79.7035 0001599  89.5445 270.5866 13.11417439127369
ONEWEB-0543             
1 55143U 23004D   25238.91474604  .00000030  00000+0  44094-4 0  9999
2 55143  87.9144  33.9523 0001822  85.0384 275.0956 13.18685955130918
ONEWEB-0544             
1 55144U 23004E   25238.90814318  .00000030  00000+0  43678-4 0  9996
2 55144  87.9143  33.9438 0001593  89.4719 270.6596 13.18686183130913
ONEWEB-0560             
1 55145U 23004F   25238.90155122  .00000041  00000+0  71216-4 0  9999
2 55145  87.9152  33.9224 0001513  89.3883 270.7423 13.18686709130925
ONEWEB-0565             
1 55146U 23004G   25238.89493575 -.00000085  00000+0 -24824-3 0  9997
2 55146  87.9142  33.9791 0001393 109.6718 250.4565 13.18684992130916
ONEWEB-0567             
1 55147U 23004H   25238.88834055 -.00000072  00000+0 -21468-3 0  9996
2 55147  87.9149  33.9395 0001377  99.2614 260.8674 13.18684770130915
ONEWEB-0569             
1 55148U 23004J   25238.88643288 -.00000288  00000+0 -82327-3 0  9993
2 55148  87.9010  18.6645 0000790  87.4555 272.6664 13.13469660131546
ONEWEB-0570             
1 55149U 23004K   25238.87845831 -.00000010  00000+0 -58609-4 0  9991
2 55149  87.9145  33.9427 0001887 112.5383 247.5949 13.18685735130905
